[{"OBJECT_NAME":"FLOCK 4BE-18","OBJECT_ID":"2024-149N","EPOCH":"2026-03-04T03:32:46.845024","MEAN_MOTION":15.38005716,"ECCENTRICITY":0.0003069,"INCLINATION":97.3786,"RA_OF_ASC_NODE":146.0469,"ARG_OF_PERICENTER":267.26,"MEAN_ANOMALY":92.8293,"EPHEMERIS_TYPE":0,"CLASSIFICATION_TYPE":"U","NORAD_CAT_ID":60480,"ELEMENT_SET_NO":999,"REV_AT_EPOCH":8614,"BSTAR":0.00077994,"MEAN_MOTION_DOT":0.00029156,"MEAN_MOTION_DDOT":0},{"OBJECT_NAME":"FLOCK 4BE-7","OBJECT_ID":"2024-149P","EPOCH":"2026-03-04T03:43:15.710880","MEAN_MOTION":15.36048218,"ECCENTRICITY":0.0002033,"INCLINATION":97.3818,"RA_OF_ASC_NODE":145.6559,"ARG_OF_PERICENTER":257.1049,"MEAN_ANOMALY":102.9968,"EPHEMERIS_TYPE":0,"CLASSIFICATION_TYPE":"U","NORAD_CAT_ID":60481,"ELEMENT_SET_NO":999,"REV_AT_EPOCH":8610,"BSTAR":0.00066481,"MEAN_MOTION_DOT":0.00023302,"MEAN_MOTION_DDOT":0},{"OBJECT_NAME":"FLOCK 4BE-16","OBJECT_ID":"2024-149R","EPOCH":"2026-03-04T04:55:22.385280","MEAN_MOTION":15.67021833,"ECCENTRICITY":0.0006654,"INCLINATION":97.3732,"RA_OF_ASC_NODE":148.5262,"ARG_OF_PERICENTER":243.8368,"MEAN_ANOMALY":116.2208,"EPHEMERIS_TYPE":0,"CLASSIFICATION_TYPE":"U","NORAD_CAT_ID":60483,"ELEMENT_SET_NO":999,"REV_AT_EPOCH":8630,"BSTAR":0.0017917,"MEAN_MOTION_DOT":0.00194645,"MEAN_MOTION_DDOT":0},{"OBJECT_NAME":"FLOCK 4BE-26","OBJECT_ID":"2024-149S","EPOCH":"2026-03-04T04:21:06.458400","MEAN_MOTION":15.43066089,"ECCENTRICITY":0.000592,"INCLINATION":97.3773,"RA_OF_ASC_NODE":145.9586,"ARG_OF_PERICENTER":255.9582,"MEAN_ANOMALY":104.1008,"EPHEMERIS_TYPE":0,"CLASSIFICATION_TYPE":"U","NORAD_CAT_ID":60484,"ELEMENT_SET_NO":999,"REV_AT_EPOCH":8614,"BSTAR":0.002898,"MEAN_MOTION_DOT":0.00129968,"MEAN_MOTION_DDOT":0},{"OBJECT_NAME":"TOMORROW-S2","OBJECT_ID":"2024-149T","EPOCH":"2026-03-04T03:06:39.463488","MEAN_MOTION":15.30566048,"ECCENTRICITY":0.000142,"INCLINATION":97.3874,"RA_OF_ASC_NODE":144.4431,"ARG_OF_PERICENTER":274.326,"MEAN_ANOMALY":85.7819,"EPHEMERIS_TYPE":0,"CLASSIFICATION_TYPE":"U","NORAD_CAT_ID":60485,"ELEMENT_SET_NO":999,"REV_AT_EPOCH":8600,"BSTAR":0.00039457,"MEAN_MOTION_DOT":0.00011589,"MEAN_MOTION_DDOT":0},{"OBJECT_NAME":"FLOCK 4BE-36","OBJECT_ID":"2024-149U","EPOCH":"2026-03-04T04:19:08.744448","MEAN_MOTION":15.38866948,"ECCENTRICITY":0.0002805,"INCLINATION":97.3795,"RA_OF_ASC_NODE":146.6172,"ARG_OF_PERICENTER":280.0207,"MEAN_ANOMALY":80.0722,"EPHEMERIS_TYPE":0,"CLASSIFICATION_TYPE":"U","NORAD_CAT_ID":60486,"ELEMENT_SET_NO":999,"REV_AT_EPOCH":8618,"BSTAR":0.00083725,"MEAN_MOTION_DOT":0.00032205,"MEAN_MOTION_DDOT":0},{"OBJECT_NAME":"FLOCK 4BE-25","OBJECT_ID":"2024-149V","EPOCH":"2026-03-04T04:01:51.744000","MEAN_MOTION":15.35785137,"ECCENTRICITY":0.0001237,"INCLINATION":97.3853,"RA_OF_ASC_NODE":145.8175,"ARG_OF_PERICENTER":244.2774,"MEAN_ANOMALY":115.8342,"EPHEMERIS_TYPE":0,"CLASSIFICATION_TYPE":"U","NORAD_CAT_ID":60487,"ELEMENT_SET_NO":999,"REV_AT_EPOCH":8610,"BSTAR":0.00067879,"MEAN_MOTION_DOT":0.00023594,"MEAN_MOTION_DDOT":0},{"OBJECT_NAME":"FLOCK 4BE-31","OBJECT_ID":"2024-149W","EPOCH":"2026-03-04T03:38:30.119136","MEAN_MOTION":15.39642385,"ECCENTRICITY":0.0001711,"INCLINATION":97.3851,"RA_OF_ASC_NODE":147.2011,"ARG_OF_PERICENTER":273.5959,"MEAN_ANOMALY":86.5091,"EPHEMERIS_TYPE":0,"CLASSIFICATION_TYPE":"U","NORAD_CAT_ID":60488,"ELEMENT_SET_NO":999,"REV_AT_EPOCH":8619,"BSTAR":0.00084647,"MEAN_MOTION_DOT":0.00033399,"MEAN_MOTION_DDOT":0},{"OBJECT_NAME":"FLOCK 4BE-20","OBJECT_ID":"2024-149X","EPOCH":"2026-03-04T03:26:44.861856","MEAN_MOTION":15.35066471,"ECCENTRICITY":0.0002438,"INCLINATION":97.376,"RA_OF_ASC_NODE":144.9353,"ARG_OF_PERICENTER":271.9572,"MEAN_ANOMALY":88.1392,"EPHEMERIS_TYPE":0,"CLASSIFICATION_TYPE":"U","NORAD_CAT_ID":60489,"ELEMENT_SET_NO":999,"REV_AT_EPOCH":8608,"BSTAR":0.00060887,"MEAN_MOTION_DOT":0.0002067,"MEAN_MOTION_DDOT":0},{"OBJECT_NAME":"FLOCK 4BE-23","OBJECT_ID":"2024-149Y","EPOCH":"2026-03-04T04:10:49.163232","MEAN_MOTION":15.34709658,"ECCENTRICITY":0.0002075,"INCLINATION":97.3839,"RA_OF_ASC_NODE":145.2847,"ARG_OF_PERICENTER":284.2604,"MEAN_ANOMALY":75.8409,"EPHEMERIS_TYPE":0,"CLASSIFICATION_TYPE":"U","NORAD_CAT_ID":60490,"ELEMENT_SET_NO":999,"REV_AT_EPOCH":8607,"BSTAR":0.00066114,"MEAN_MOTION_DOT":0.00022202,"MEAN_MOTION_DDOT":0},{"OBJECT_NAME":"FLOCK 4BE-15","OBJECT_ID":"2024-149Z","EPOCH":"2026-03-04T04:28:39.415584","MEAN_MOTION":15.39370368,"ECCENTRICITY":0.000289,"INCLINATION":97.3776,"RA_OF_ASC_NODE":146.3134,"ARG_OF_PERICENTER":327.6143,"MEAN_ANOMALY":32.4924,"EPHEMERIS_TYPE":0,"CLASSIFICATION_TYPE":"U","NORAD_CAT_ID":60491,"ELEMENT_SET_NO":999,"REV_AT_EPOCH":8617,"BSTAR":0.0027919,"MEAN_MOTION_DOT":0.00110485,"MEAN_MOTION_DDOT":0},{"OBJECT_NAME":"FLOCK 4BE-17","OBJECT_ID":"2024-149AA","EPOCH":"2026-03-04T03:49:10.122816","MEAN_MOTION":15.36408678,"ECCENTRICITY":0.0002063,"INCLINATION":97.3834,"RA_OF_ASC_NODE":145.9357,"ARG_OF_PERICENTER":260.1043,"MEAN_ANOMALY":99.9968,"EPHEMERIS_TYPE":0,"CLASSIFICATION_TYPE":"U","NORAD_CAT_ID":60492,"ELEMENT_SET_NO":999,"REV_AT_EPOCH":8611,"BSTAR":0.00067724,"MEAN_MOTION_DOT":0.00024017,"MEAN_MOTION_DDOT":0},{"OBJECT_NAME":"NUSAT-50 (NANCY ROMAN)","OBJECT_ID":"2024-149AB","EPOCH":"2026-03-03T20:22:57.658944","MEAN_MOTION":15.29585917,"ECCENTRICITY":0.0001958,"INCLINATION":97.3825,"RA_OF_ASC_NODE":144.8571,"ARG_OF_PERICENTER":311.7383,"MEAN_ANOMALY":48.369,"EPHEMERIS_TYPE":0,"CLASSIFICATION_TYPE":"U","NORAD_CAT_ID":60493,"ELEMENT_SET_NO":999,"REV_AT_EPOCH":8602,"BSTAR":0.00042172,"MEAN_MOTION_DOT":0.00012024,"MEAN_MOTION_DDOT":0},{"OBJECT_NAME":"FLOCK 4BE-22","OBJECT_ID":"2024-149AC","EPOCH":"2026-03-04T03:54:53.041824","MEAN_MOTION":15.37463328,"ECCENTRICITY":0.0002723,"INCLINATION":97.3786,"RA_OF_ASC_NODE":145.9856,"ARG_OF_PERICENTER":287.5241,"MEAN_ANOMALY":72.5705,"EPHEMERIS_TYPE":0,"CLASSIFICATION_TYPE":"U","NORAD_CAT_ID":60494,"ELEMENT_SET_NO":999,"REV_AT_EPOCH":8614,"BSTAR":0.0008124,"MEAN_MOTION_DOT":0.00029846,"MEAN_MOTION_DDOT":0},{"OBJECT_NAME":"FLOCK 4BE-34","OBJECT_ID":"2024-149AD","EPOCH":"2026-03-04T04:28:02.510688","MEAN_MOTION":15.37750655,"ECCENTRICITY":0.0002307,"INCLINATION":97.3833,"RA_OF_ASC_NODE":146.7524,"ARG_OF_PERICENTER":290.9477,"MEAN_ANOMALY":69.1521,"EPHEMERIS_TYPE":0,"CLASSIFICATION_TYPE":"U","NORAD_CAT_ID":60495,"ELEMENT_SET_NO":999,"REV_AT_EPOCH":8617,"BSTAR":0.00071499,"MEAN_MOTION_DOT":0.00026491,"MEAN_MOTION_DDOT":0},{"OBJECT_NAME":"TYCHE","OBJECT_ID":"2024-149AE","EPOCH":"2026-03-04T03:26:18.775968","MEAN_MOTION":15.26066278,"ECCENTRICITY":0.0001931,"INCLINATION":97.3821,"RA_OF_ASC_NODE":142.351,"ARG_OF_PERICENTER":241.4073,"MEAN_ANOMALY":118.6971,"EPHEMERIS_TYPE":0,"CLASSIFICATION_TYPE":"U","NORAD_CAT_ID":60496,"ELEMENT_SET_NO":999,"REV_AT_EPOCH":8588,"BSTAR":0.00031043,"MEAN_MOTION_DOT":7.927e-5,"MEAN_MOTION_DDOT":0},{"OBJECT_NAME":"FLOCK 4BE-32","OBJECT_ID":"2024-149AF","EPOCH":"2026-03-04T03:22:49.975680","MEAN_MOTION":15.38191212,"ECCENTRICITY":0.0002644,"INCLINATION":97.3774,"RA_OF_ASC_NODE":146.2134,"ARG_OF_PERICENTER":289.6012,"MEAN_ANOMALY":70.4948,"EPHEMERIS_TYPE":0,"CLASSIFICATION_TYPE":"U","NORAD_CAT_ID":60497,"ELEMENT_SET_NO":999,"REV_AT_EPOCH":8616,"BSTAR":0.00078652,"MEAN_MOTION_DOT":0.00029581,"MEAN_MOTION_DDOT":0}]
